ID,UniqueID,ID_Name,SampleID,SampleName,PI,SRA ID,Species,Type,Latitude,Longitude,Country,State/Province,Place,Region,Races,BamFileName,Memo,,,
1,PL111001,P111DP5690,DP5690,Deltapine-5690,PI548822,SRX996760,AD1,Cultivar,37.0902,-95.7129,United States,,,,,DP5690,,,,
2,PL111002,P111Maxxa,Maxxa,Acala Maxxa,PI540885,SRX204794,AD1,Cultivar,37.0902,-95.7129,United States,,,,,Maxxa,,,,
3,PL121003,P121TX2094,TX2094,TX-2094,PI501501,SRX996761,AD1,Wild,21.5467,-88.4000,Mexico,Yucatan,,,,TX_2094,,,,
4,PL111004,P111Cok312,Cok312,Coker-312,PI529278,SRX669469,AD1,Cultivar,37.0902,-95.7129,United States,,,,,Coker_312,,,,
5,PL111005,P111FM832,FM832,Fibermax-832,PI603955,SRX669468,AD1,Cultivar,37.0902,-95.7129,United States,,,,,FM832,,,,
6,PL111006,P111240RNR,240RNR,M-240RNR,PI592511,SRX669467,AD1,Cultivar,37.0902,-95.7129,United States,,,,,MS240,,,,
7,PL111007,P111PD1,PD1,PD-1,PI606805,SRX668322,AD1,Cultivar,37.0902,-95.7129,United States,,,,,PD1,,,,
8,PL111008,P111SL542,SL542,Sealand-542,PI528730,SRX668168,AD1,Cultivar,37.0902,-95.7129,United States,,,,,Sealand-542,,,,
9,PL111009,P111SG747,SG747,SureGrow-747,PI656375,SRX669470,AD1,Cultivar,37.0902,-95.7129,United States,,,,,SG747,,,,
10,PL111010,P111ST474,ST474,Stoneville-474,PI578877,SRX669471,AD1,Cultivar,37.0902,-95.7129,United States,,,,,ST474,,,,
11,PL111011,P111TamSph,TamSph,Tamcot sphinx,PI592801,SRX669472,AD1,Cultivar,37.0902,-95.7129,United States,,,,,Tamcot_Sphinx,,,,
12,PL111012,P111TM1,TM1,Texas Marker-1,PI607172,SRX667500,AD1,Cultivar,37.0902,-95.7129,United States,,,,,TM1,,,,
13,PL121013,P121TX0231,TX0231,TX-0231,PI163725,SRX669473,AD1,Wild,14.9676,-89.5356,Guatemala,,,,,TX321,Should Rename it.,,,
14,PL221014,P221GB0067,GB0067,GB0067,PI528325,SRX996762,AD2,Wild,-9.1900,-75.0152,Peru,,,,,GB67,,,,
15,PL221015,P221GB0074,GB0074,GB0074,PI528330,SRX996763,AD2,Wild,-9.1900,-75.0152,Peru,,,,,GB74,,,,
16,PL211016,P211GB0236,GB0236,GB0236,PI528393,SRX996764,AD2,Cultivar,26.8206,30.8025,Egypt,,,,,GB236,Giza-7,,,
17,PL221017,P221GB0287,GB0287,GB0287,PI265165,SRX996765,AD2,Wild,16.3176,-86.5379,Honduras,Punta Gorda,,,,GB287,,,,
18,PL121018,P121GB0319,GB0319,GB0319,PI528167,SRX996766,AD1,Wild,-9.1900,-75.0152,Peru,,,,,GB319,AD1?,,,
19,PL221019,P221GB0362,GB0362,GB0362,PI361153,SRX996767,AD2,Wild,-14.2350,-51.9253,Brazil,,,,,GB362,,,,
20,PL221020,P221GB0369,GB0369,GB0369,PI528216,SRX996768,AD2,Wild,4.5709,-74.2973,Colombia,,,,,GB369,,,,
21,PL221021,P221GB0385,GB0385,GB0385,PI528230,SRX996769,AD2,Wild,6.4238,-66.5897,Venezuela,,,,,GB385,,,,
22,PL221022,P221GB0398,GB0398,GB0398,PI528243,SRX996770,AD2,Wild,-9.1900,-75.0152,Peru,,,,,GB398,,,,
23,PL221023,P221GB0411,GB0411,GB0411,PI528256,SRX996771,AD2,Wild,-9.1900,-75.0152,Peru,,,,,GB411,,,,
24,PL221024,P221GB0414,GB0414,GB0414,PI528259,SRX996772,AD2,Wild,-9.1900,-75.0152,Peru,,,,,GB414,,,,
25,PL221025,P221GB0427,GB0427,GB0427,PI528272,SRX996773,AD2,Wild,-14.2350,-51.9253,Brazil,,,,,GB427,Tanguis CN (W) 748-60,,,
26,PL221026,P221GB0618,GB0618,GB0618,PI608061,SRX996774,AD2,Wild,-1.9575,-79.9193,Ecuador,Guayas,,,,GB618,AS-828,,,
27,PL211027,P211DP0340,DP0340,Deltapine-340,PI630941,SRX996775,AD2,Cultivar,32.7783,-110.4179,USA,Arizona,,,,DP340,,,,
28,PL211028,P211PHY76,PHY76,Phytogen-76,PI617048,SRX996776,AD2,Cultivar,36.7783,-119.4179,USA,California,,,,Phy76,PHY 76 Pima,,,
29,PL111035,P111HS26,HS26,HS26,PI606814,SRR1534950,AD1,Cultivar,33.5779,-101.8552,USA,Texas,,,,SRR1534950,Paymaster HS26,,,
30,PL112001,P112AU,AU,Acala Ultima,PI603079,,AD1,Cultivar,34.5199,105.8701,United States,New Mexico,,,,AcalaUltima,,,,
31,PL112002,P112Cok315,Cok315,Coker 315,PI529530,,AD1,Cultivar,37.0902,-95.7129,United States,,,,,Coker315,,,,
32,PL112003,P112DP90,DP90,Deltapine 90,PI529529,,AD1,Cultivar,37.0902,-95.7129,United States,,,,,DP90,,,,
33,PL112004,P112FM966,FM966,Fibermax 966,,,AD1,Cultivar,37.0902,-95.7129,United States,,,,,FM966,,,,
34,PL112005,P112PSC355,PSC355,Phytogen PSC 355,PI612974,,AD1,Cultivar,37.0902,-95.7129,United States,,,,,PSC355,,,,
35,PL112006,P112ST825,ST825,Stoneville 825,PI518761,,AD1,Cultivar,37.0902,-95.7129,United States,,,,,STV825,,,,
36,PL112007,P112TP,TP,Tamcot Pyramid,PI617042,,AD1,Cultivar,37.0902,-95.7129,United States,,,,,TamcotPyramid,,,,
37,PL113001,P113CRI12,CRI12,CRI12,,SRR5279197,AD1,Cultivar,36.0976,114.3924,China,Henan,Anyang,,,SRR5279197,,,,
38,PL113002,P113LuM378,LuM378,Lumian378,,SRR5279198,AD1,Cultivar,35.8940,117.9249,China,Shandong,,,,SRR5279198,,,,
39,PL113003,P113CM47,CM47,Chuangmian47,,SRR5279199,AD1,Cultivar,30.2638,102.8055,China,Sichuan,,,,SRR5279199,,,,
40,PL113004,P113ShuoM3,ShuoM3,Shuomian3,,SRR5279200,AD1,Cultivar,37.8957,114.9042,China,Hebei,Baoding,,,SRR5279200,,,,
41,PL113005,P113Zh571,Zh571,Zhong571,,SRR5279201,AD1,Cultivar,36.0976,114.3924,China,Henan,Anyang,,,SRR5279201,,,,
42,PL113006,P113JiM11,JiM11,Jimian11,,SRR5279202,AD1,Cultivar,37.8957,114.9042,China,Hebei,,,,SRR5279202,,,,
43,PL113007,P113ZhZhM2,ZhZhM2,Zhongzhimian2,,SRR5279203,AD1,Cultivar,39.9138,116.3636,China,,,,,SRR5279203,,,,
44,PL113008,P113Zh9612,Zh9612,Zhongs9612,,SRR5279204,AD1,Cultivar,39.9138,116.3636,China,,,,,SRR5279204,,,,
45,PL113009,P113XY9648,XY9648,Xinyan96-48,,SRR5279205,AD1,Cultivar,39.9138,116.3636,China,,,,,SRR5279205,,,,
46,PL113010,P113GK50,GK50,GK50,,SRR5279206,AD1,Cultivar,39.9138,116.3636,China,,,,,SRR5279206,,,,
47,PL113011,P113KHW164,KHW164,Kanghuangwei164,,SRR5279207,AD1,Cultivar,39.9138,116.3636,China,,,,,SRR5279207,,,,
48,PL113012,P113CRI35,CRI35,CRI35,,SRR5279208,AD1,Cultivar,36.0976,114.3924,China,Henan,Anyang,,,SRR5279208,,,,
49,PL113013,P113Zh9807,Zh9807,Zhong9807,,SRR5279209,AD1,Cultivar,39.9138,116.3636,China,,,,,SRR5279209,,,,
50,PL113014,P113JinM20,JinM20,Jinmian20,,SRR5279210,AD1,Cultivar,39.9138,116.3636,China,,,,,SRR5279210,,,,
51,PL113015,P113JinM33,JinM33,Jinmian33,,SRR5279211,AD1,Cultivar,39.9138,116.3636,China,,,,,SRR5279211,,,,
52,PL113016,P113YuM11,YuM11,Yumian11,,SRR5279212,AD1,Cultivar,34.2904,113.3824,China,Henan,,,,SRR5279212,,,,
53,PL113017,P113LuMY16,LuMY16,Lumianyan16,,SRR5279213,AD1,Cultivar,39.9138,116.3636,China,,,,,SRR5279213,,,,
54,PL113018,P113YM2067,YM2067,Yumian2067,,SRR5279214,AD1,Cultivar,34.2904,113.3824,China,Henan,,,,SRR5279214,,,,
55,PL113019,P113XT6871,XT6871,Xingtai6871,,SRR5279215,AD1,Cultivar,37.8957,114.9042,China,Hebei,Xingtai,,,SRR5279215,,,,
56,PL113020,P113Ug4,Ug4,Uganda4,,SRR5279216,AD1,Cultivar,1.3733,32.2903,Uganda,,,,,SRR5279216,,,,
57,PL114005,P114SA0592,SA0592,G. h. Sealand 883,PI528875,SAMN04998802,AD1,Cultivar,34.1954,-79.7626,United States,South Carolina,Florence,Eastern,,SAMN04998802,,SA-0592,Sealand 883 (G. barb. X G. hir.),
58,PL214006,P214GB1030,GB1030,G. barbadense Pima S6,PI608346,SAMN04998803,AD2,Cultivar,34.0489,-111.0937,United States,Arizona,,,,SAMN04998803,,GB-1030,Pima S-6,
59,PL114007,P114TM1,TM1,G. h. Delta TM-1,PI607172,SAMN04998804,AD1,Cultivar,30.6280,-96.3344,United States,Texas,College Station,,,SAMN04998804,Duplicated,SA-2269,TM1  ,
60,PL114008,P114SA1466,SA1466,G. h. Delta DES 56,PI529520,SAMN04998805,AD1,Cultivar,33.4240,-90.9151,United States,Mississippi,Stoneville,Midsouth,,SAMN04998805,,SA-1466,Des 56,
61,PL124009,P124TX0101,TX0101,G. h. latifolium T101,PI163643,SAMN04998806,AD1,Wild,14.1931,-89.9253,Guatemala,Jutiapa,,,Latifolium,SAMN04998806,,TX-0101,,
62,PL124011,P124TX0246,TX0246,G. h. marie-galante T246,PI165395,SAMN04998808,AD1,Wild,17.4392,-99.5451,Mexico,Guerrero,,,Marie-Galante ,SAMN04998808,,TX-0246,,
63,PL124012,P124TX0368,TX0368,G. h. marie-galante T368,PI163695,SAMN04998809,AD1,Wild,14.5704,-89.3369,Guatemala,Chiquimula,Esquipulas,,Marie-Galante,SAMN04998809,,TX-0368,,
64,PL114013,P114SA3783,SA3783,G. h. Plains Paymaster HS200,PI542974,SAMN04998810,AD1,Cultivar,31.9686,-99.9018,United States,Texas,,,,SAMN04998810,,SA-3783,,
65,PL124014,P124TX0018,TX0018,G. h. richmondii T18,PI154026,SAMN04998811,AD1,Wild,16.7516,-93.1030,Mexico,Chiapas,Tuxtala Gutierrez,,Richmondii,SAMN04998811,,TX-0018,,
66,PL124015,P124TX0463,TX0463,G. h. richmondii T463,PI154015,SAMN04998812,AD1,Wild,16.5611,-95.0963,Mexico,Oaxaca,Ixtepec,,Richmondii,SAMN04998812,,TX-0463,,
67,PL124016,P124TX2094,TX2094,G. h. yucatanense TX2094,PI501501,SAMN04998813,AD1,Wild,19.8067,-90.5000,Mexico,Yucatan,Campeche,,Yucatanense,SAMN04998813,Duplicated,TX-2094,,
68,PL124017,P124TX0236,TX0236,G. h. palmeri T326,PI163650,SAMN04998814,AD1,Wild,14.1931,-89.9253,Guatemala,Jutiapa ,,,Palmeri,SAMN04998814,,TX-0236,,
69,PL124018,P124TX0171,TX0171,G. h. morillii T171,PI165305,SAMN04998815,AD1,Wild,17.0732,-96.7266,Mexico,Oaxaca,,,Morillii,SAMN04998815,,TX-0171,,
70,PL124019,P124TX0293,TX0293,G. h. morrillii T293,PI165237,SAMN04998816,AD1,Wild,17.0732,-96.7266,Mexico,Oaxaca,,,Morrillii,SAMN04998816,,TX-0293,,
71,PL124020,P124TX0045,TX0045,G. h. punctatum T45,PI154056,SAMN04998817,AD1,Wild,16.7569,-93.1292,Mexico,Chiapas,,,Punctatum,SAMN04998817,,TX-0045,,
72,PL124021,P124TX0165,TX0165,G. h. punctatum T165,PI163721,SAMN04998818,AD1,Wild,14.9676,-89.5356,Guatemala,Zacapa,Las Carretas,,Punctatum,SAMN04998818,,TX-0165,,
73,PL224022,P224K101,K101,G. barbadense K101,PI528337,SAMN04998819,AD2,Wild,-16.2902,-63.5887,Bolivia,,,,,SAMN04998819,Duplicated,GB-0095,,
74,PL115001,P115HAU001,HAU001,Emian24,,SRR4003068,AD1,Cultivar,30.7378,112.2384,China,Hubei,,YangtzeRiver,,SRR4003068,,,,
75,PL115002,P115HAU002,HAU002,Yumian1,,SRR4003074,AD1,Cultivar,30.2638,102.8055,China,Sichuan,,YangtzeRiver,,SRR4003074,,,,
76,PL115003,P115HAU003,HAU003,Xiangmian13,,SRR4003080,AD1,Cultivar,27.6253,111.8569,China,Hunan,,YangtzeRiver,,SRR4003080,,,,
77,PL115004,P115HAU004,HAU004,Yinshan4,,SRR4003086,AD1,Cultivar,34.2904,113.3824,China,Henan,,YellowRiver,,SRR4003086,,,,
78,PL115005,P115HAU005,HAU005,Xinluzao16,,SRR4003095,AD1,Cultivar,45.5246,87.5396,China,North of Xinjiang,,XinJiang,,SRR4003095,,,,
79,PL115006,P115HAU006,HAU006,Zhongmiansuo12,,SRR3999446,AD1,Cultivar,34.2904,113.3824,China,Henan,,YellowRiver,,SRR3999446,,,,
80,PL115007,P115HAU007,HAU007,Ejing1,,SRR4003140,AD1,Cultivar,30.7378,112.2384,China,Hubei,,YangtzeRiver,,SRR4003140,,,,
81,PL115008,P115HAU008,HAU008,94052,,SRR4003147,AD1,Cultivar,39.9138,116.3636,China,China,,,,SRR4003147,,,,
82,PL115009,P115HAU009,HAU009,Chuanmian30,,SRR4003153,AD1,Cultivar,30.2638,102.8055,China,Sichuan,,YangtzeRiver,,SRR4003153,,,,
83,PL115010,P115HAU010,HAU010,Lumian2,,SRR4003159,AD1,Cultivar,35.8940,117.9249,China,Shandong,,YellowRiver,,SRR4003159,,,,
84,PL115011,P115HAU011,HAU011,Liaomian7,,SRR4003165,AD1,Cultivar,41.9437,122.5290,China,Liaoning,,North,,SRR4003165,,,,
85,PL115012,P115HAU012,HAU012,Liaomian11,,SRR4003171,AD1,Cultivar,41.9437,122.5290,China,Liaoning,,North,,SRR4003171,,,,
86,PL115013,P115HAU013,HAU013,Liaomian14,,SRR4003178,AD1,Cultivar,41.9437,122.5290,China,Liaoning,,North,,SRR4003178,,,,
87,PL115014,P115HAU014,HAU014,Liaomian15,,SRR4003183,AD1,Cultivar,41.9437,122.5290,China,Liaoning,,North,,SRR4003183,,,,
88,PL115015,P115HAU015,HAU015,Jinmian12,,SRR4003189,AD1,Cultivar,37.2426,111.8569,China,Shanxi,,YellowRiver,,SRR4003189,,,,
89,PL115016,P115HAU016,HAU016,Jinmian13,,SRR4006034,AD1,Cultivar,37.2426,111.8569,China,Shanxi,,YellowRiver,,SRR4006034,,,,
90,PL115017,P115HAU017,HAU017,Jinmian18,,SRR4006035,AD1,Cultivar,37.2426,111.8569,China,Shanxi,,YellowRiver,,SRR4006035,,,,
91,PL115018,P115HU018,HU018,Stoneville4B,PI528690,SRR4006036,AD1,Cultivar,37.0902,-95.7129,USA,,,,,SRR4006036,,,,
92,PL115019,P115HAU019,HAU019,Jinmian28,,SRR4006037,AD1,Cultivar,37.2426,111.8569,China,Shanxi,,YellowRiver,,SRR4006037,,,,
93,PL115020,P115HAU020,HAU020,Jinmian36,,SRR4006038,AD1,Cultivar,37.2426,111.8569,China,Shanxi,,YellowRiver,,SRR4006038,,,,
94,PL115021,P115HAU021,HAU021,Jimian3,,SRR4006039,AD1,Cultivar,37.8957,114.9042,China,Hebei,,YellowRiver,,SRR4006039,,,,
95,PL115022,P115HAU022,HAU022,Jimian8,,SRR4006040,AD1,Cultivar,37.8957,114.9042,China,Hebei,,YellowRiver,,SRR4006040,,,,
96,PL115023,P115HAU023,HAU023,Jimian11,,SRR4006041,AD1,Cultivar,37.8957,114.9042,China,Hebei,,YellowRiver,,SRR4006041,,,,
97,PL115024,P115HAU024,HAU024,Jimian12,,SRR4006042,AD1,Cultivar,37.8957,114.9042,China,Hebei,,YellowRiver,,SRR4006042,,,,
98,PL115025,P115HAU025,HAU025,Jimian91-19,,SRR4006157,AD1,Cultivar,37.8957,114.9042,China,Hebei,,YellowRiver,,SRR4006157,,,,
99,PL115026,P115HAU026,HAU026,Jimian228,,SRR4006659,AD1,Cultivar,37.8957,114.9042,China,Hebei,,YellowRiver,,SRR4006659,,,,
100,PL115027,P115HAU027,HAU027,Jihe321,,SRR4006660,AD1,Cultivar,37.8957,114.9042,China,Hebei,,YellowRiver,,SRR4006660,,,,
101,PL115028,P115HAU028,HAU028,Han4849,,SRR4006661,AD1,Cultivar,37.8957,114.9042,China,Hebei,,YellowRiver,,SRR4006661,,,,
102,PL115029,P115HAU029,HAU029,Yumian3,,SRR4006662,AD1,Cultivar,34.2904,113.3824,China,Henan,,YellowRiver,,SRR4006662,,,,
103,PL115030,P115HAU030,HAU030,Yumian11,,SRR4006663,AD1,Cultivar,34.2904,113.3824,China,Henan,,YellowRiver,,SRR4006663,,,,
104,PL115031,P115HAU031,HAU031,Yumian19,,SRR4006664,AD1,Cultivar,34.2904,113.3824,China,Henan,,YellowRiver,,SRR4006664,,,,
105,PL115032,P115HAU032,HAU032,Xinluzao1,,SRR4006665,AD1,Cultivar,45.5246,87.5396,China,North of Xinjiang,,XinJiang,,SRR4006665,,,,
106,PL115033,P115HAU033,HAU033,Xinluzao8,,SRR4006667,AD1,Cultivar,45.5246,87.5396,China,North of Xinjiang,,XinJiang,,SRR4006667,,,,
107,PL115034,P115HAU034,HAU034,Xinluzao9,,SRR4006668,AD1,Cultivar,45.5246,87.5396,China,North of Xinjiang,,XinJiang,,SRR4006668,,,,
108,PL115035,P115HAU035,HAU035,Hanmian802,,SRR4006669,AD1,Cultivar,37.8957,114.9042,China,Hebei,,YellowRiver,,SRR4006669,,,,
109,PL115036,P115HAU036,HAU036,Xinluzao22,,SRR4006670,AD1,Cultivar,45.5246,87.5396,China,North of Xinjiang,,XinJiang,,SRR4006670,,,,
110,PL115037,P115HAU037,HAU037,Xinluzao32,,SRR4006671,AD1,Cultivar,45.5246,87.5396,China,North of Xinjiang,,XinJiang,,SRR4006671,,,,
111,PL115038,P115HAU038,HAU038,Xinluzhong3,,SRR4006672,AD1,Cultivar,40.8246,80.4396,China,South of Xinjiang,,XinJiang,,SRR4006672,,,,
112,PL115039,P115HAU039,HAU039,Xinluzhong4,,SRR4006673,AD1,Cultivar,40.8246,80.4396,China,South of Xinjiang,,XinJiang,,SRR4006673,,,,
113,PL115040,P115HAU040,HAU040,Junmian1,,SRR4006674,AD1,Cultivar,40.8246,80.4396,China,South of Xinjiang,,XinJiang,,SRR4006674,,,,
114,PL115041,P115HAU041,HAU041,Emian3,,SRR4006675,AD1,Cultivar,30.7378,112.2384,China,Hubei,,YangtzeRiver,,SRR4006675,,,,
115,PL115042,P115HAU042,HAU042,Emian6,,SRR4006676,AD1,Cultivar,30.7378,112.2384,China,Hubei,,YangtzeRiver,,SRR4006676,,,,
116,PL115043,P115HAU043,HAU043,Emian9,,SRR4006677,AD1,Cultivar,30.7378,112.2384,China,Hubei,,YangtzeRiver,,SRR4006677,,,,
117,PL115044,P115HAU044,HAU044,Emian11,,SRR4006678,AD1,Cultivar,30.7378,112.2384,China,Hubei,,YangtzeRiver,,SRR4006678,,,,
118,PL115045,P115HAU045,HAU045,Emian15,,SRR4006679,AD1,Cultivar,30.7378,112.2384,China,Hubei,,YangtzeRiver,,SRR4006679,,,,
119,PL115046,P115HAU046,HAU046,Emian16,,SRR4006680,AD1,Cultivar,30.7378,112.2384,China,Hubei,,YangtzeRiver,,SRR4006680,,,,
120,PL115047,P115HAU047,HAU047,Jinmian11,,SRR4008910,AD1,Cultivar,37.2426,111.8569,China,Shanxi,,YellowRiver,,SRR4008910,,,,
121,PL115048,P115HAU048,HAU048,Emian19,,SRR4006681,AD1,Cultivar,30.7378,112.2384,China,Hubei,,YangtzeRiver,,SRR4006681,,,,
122,PL115049,P115HAU049,HAU049,Emian20,,SRR4006682,AD1,Cultivar,30.7378,112.2384,China,Hubei,,YangtzeRiver,,SRR4006682,,,,
123,PL115050,P115HAU050,HAU050,Sumian4,,SRR4006683,AD1,Cultivar,33.1402,119.7889,China,Jiangsu,,YangtzeRiver,,SRR4006683,,,,
124,PL115051,P115HAU051,HAU051,Ekangmian2,,SRR4006684,AD1,Cultivar,30.7378,112.2384,China,Hubei,,YangtzeRiver,,SRR4006684,,,,
125,PL115052,P115HAU052,HAU052,Ekangmian6,,SRR4006685,AD1,Cultivar,30.7378,112.2384,China,Hubei,,YangtzeRiver,,SRR4006685,,,,
126,PL115053,P115HAU053,HAU053,Ekangmian7,,SRR4006686,AD1,Cultivar,30.7378,112.2384,China,Hubei,,YangtzeRiver,,SRR4006686,,,,
127,PL115054,P115HAU054,HAU054,Ekangmian9,,SRR4006687,AD1,Cultivar,30.7378,112.2384,China,Hubei,,YangtzeRiver,,SRR4006687,,,,
128,PL115055,P115HAU055,HAU055,Ekangmian10,,SRR4006688,AD1,Cultivar,30.7378,112.2384,China,Hubei,,YangtzeRiver,,SRR4006688,,,,
129,PL115056,P115HAU056,HAU056,Eguangmian,,SRR3999444,AD1,Cultivar,30.7378,112.2384,China,Hubei,,YangtzeRiver,,SRR3999444,,,,
130,PL115057,P115HAU057,HAU057,Esha28,,SRR4006689,AD1,Cultivar,30.7378,112.2384,China,Hubei,,YangtzeRiver,,SRR4006689,,,,
131,PL115058,P115HAU058,HAU058,Ejing92,,SRR4006690,AD1,Cultivar,30.7378,112.2384,China,Hubei,,YangtzeRiver,,SRR4006690,,,,
132,PL115059,P115HAU059,HAU059,Xuzhou142,,SRR4006691,AD1,Cultivar,33.1402,119.7889,China,Jiangsu,,YangtzeRiver,,SRR4006691,,,,
133,PL115060,P115HAU060,HAU060,Xuzhou209,,SRR4006692,AD1,Cultivar,33.1402,119.7889,China,Jiangsu,,YangtzeRiver,,SRR4006692,,,,
134,PL115061,P115HAU061,HAU061,Xuzhou1214,,SRR4006693,AD1,Cultivar,33.1402,119.7889,China,Jiangsu,,YangtzeRiver,,SRR4006693,,,,
135,PL115062,P115HAU062,HAU062,Xuzhou1514,,SRR4006694,AD1,Cultivar,33.1402,119.7889,China,Jiangsu,,YangtzeRiver,,SRR4006694,,,,
136,PL115063,P115HAU063,HAU063,Sumian2,,SRR4006695,AD1,Cultivar,33.1402,119.7889,China,Jiangsu,,YangtzeRiver,,SRR4006695,,,,
137,PL115064,P115HAU064,HAU064,Sumian3,,SRR4006696,AD1,Cultivar,33.1402,119.7889,China,Jiangsu,,YangtzeRiver,,SRR4006696,,,,
138,PL115065,P115HAU065,HAU065,Sumian5,,SRR4006697,AD1,Cultivar,33.1402,119.7889,China,Jiangsu,,YangtzeRiver,,SRR4006697,,,,
139,PL115066,P115HAU066,HAU066,Sumian8,,SRR4006698,AD1,Cultivar,33.1402,119.7889,China,Jiangsu,,YangtzeRiver,,SRR4006698,,,,
140,PL115067,P115HAU067,HAU067,Sukang191,,SRR4006699,AD1,Cultivar,33.1402,119.7889,China,Jiangsu,,YangtzeRiver,,SRR4006699,,,,
141,PL115068,P115HAU068,HAU068,Gangmian2,,SRR4006701,AD1,Cultivar,30.7378,112.2384,China,Hubei,,YangtzeRiver,,SRR4006701,,,,
142,PL115069,P115HAU069,HAU069,Simian2,,SRR4006702,AD1,Cultivar,33.1402,119.7889,China,Jiangsu,,YangtzeRiver,,SRR4006702,,,,
143,PL115070,P115HAU070,HAU070,Jinmian1,,SRR4006703,AD1,Cultivar,37.2426,111.8569,China,Shanxi,,YellowRiver,,SRR4006703,,,,
144,PL115071,P115HAU071,HAU071,Shanmian9,,SRR4006704,AD1,Cultivar,37.2426,111.8569,China,Shanxi,,YellowRiver,,SRR4006704,,,,
145,PL115072,P115HAU072,HAU072,Daihongdai,,SRR4006705,AD1,Cultivar,30.7378,112.2384,China,Hubei,,YangtzeRiver,,SRR4006705,,,,
146,PL115073,P115HAU073,HAU073,Jing1246,,SRR4006706,AD1,Cultivar,30.7378,112.2384,China,Hubei,,YangtzeRiver,,SRR4006706,,,,
147,PL115074,P115HAU074,HAU074,Heishanmian1,,SRR4006707,AD1,Cultivar,41.9437,122.5290,China,Liaoning,,North,,SRR4006707,,,,
148,PL115075,P115HAU075,HAU075,Tianmian1,,SRR4006709,AD1,Cultivar,30.7378,112.2384,China,Hubei,,YangtzeRiver,,SRR4006709,,,,
149,PL115076,P115HAU076,HAU076,Huakangmian1,,SRR4006710,AD1,Cultivar,30.7378,112.2384,China,Hubei,,YangtzeRiver,,SRR4006710,,,,
150,PL115077,P115HAU077,HAU077,Keyi2,,SRR4006711,AD1,Cultivar,37.8957,114.9042,China,Hebei,,YellowRiver,,SRR4006711,,,,
151,PL115078,P115HAU078,HAU078,Nantong5,,SRR4006712,AD1,Cultivar,33.1402,119.7889,China,Jiangsu,,YangtzeRiver,,SRR4006712,,,,
152,PL115079,P115HAU079,HAU079,Shiduan5,,SRR4006715,AD1,Cultivar,37.8957,114.9042,China,Hebei,,YellowRiver,,SRR4006715,,,,
153,PL115080,P115HAU080,HAU080,Shannongfeng6,,SRR4006716,AD1,Cultivar,35.8940,117.9249,China,Shandong,,YellowRiver,,SRR4006716,,,,
154,PL115081,P115HAU081,HAU081,Shanong6,,SRR4006718,AD1,Cultivar,30.7378,112.2384,China,Hubei,,YangtzeRiver,,SRR4006718,,,,
155,PL115082,P115HAU082,HAU082,Ganmian12,,SRR4006719,AD1,Cultivar,27.0875,114.9042,China,Jiangxi,,YangtzeRiver,,SRR4006719,,,,
156,PL115083,P115HAU083,HAU083,Xiangmian13,,SRR4006720,AD1,Cultivar,27.6253,111.8569,China,Hunan,,YangtzeRiver,,SRR4006720,,,,
157,PL115084,P115HAU084,HAU084,Wanmian73-10,,SRR4006721,AD1,Cultivar,30.6007,117.9249,China,Anhui,,YangtzeRiver,,SRR4006721,,,,
158,PL115085,P115HAU085,HAU085,86-1,,SRR4006722,AD1,Cultivar,39.9138,116.3636,China,Beijing,,YellowRiver,,SRR4006722,,,,
159,PL115086,P115HAU086,HAU086,99B,,SRR4006723,AD1,Cultivar,37.8957,114.9042,China,Hebei,,YellowRiver,,SRR4006723,,,,
160,PL115087,P115HAU087,HAU087,SGK321,,SRR4006724,AD1,Cultivar,37.8957,114.9042,China,Hebei,,YellowRiver,,SRR4006724,,,,
161,PL115088,P115HAU088,HAU088,Lumian26,,SRR4006725,AD1,Cultivar,35.8940,117.9249,China,Shandong,,YellowRiver,,SRR4006725,,,,
162,PL115089,P115HU089,HU089,Stoneville4,,SRR4006726,AD1,Cultivar,37.0902,-95.7129,USA,,,,,SRR4006726,,,,
163,PL115090,P115HAU090,HAU090,Jingsimian,,SRR4006727,AD1,Cultivar,37.2426,111.8569,China,Shanxi,,YellowRiver,,SRR4006727,,,,
164,PL115091,P115HAU091,HAU091,Yapengmian,,SRR4006728,AD1,Cultivar,30.7378,112.2384,China,Hubei,,YangtzeRiver,,SRR4006728,,,,
165,PL115092,P115HAU092,HAU092,Jijiaodezimian,,SRR4006730,AD1,Cultivar,39.9138,116.3636,China,China,,,,SRR4006730,,,,
166,PL115093,P115HAU093,HAU093,Zhongmiansuo36,,SRR4006731,AD1,Cultivar,34.2904,113.3824,China,Henan,,YellowRiver,,SRR4006731,,,,
167,PL115094,P115HAU094,HAU094,Zhongmiansuo40,,SRR4006732,AD1,Cultivar,34.2904,113.3824,China,Henan,,YellowRiver,,SRR4006732,,,,
168,PL115095,P115HAU095,HAU095,Zhongmiansuo2,,SRR4006733,AD1,Cultivar,34.2904,113.3824,China,Henan,,YellowRiver,,SRR4006733,,,,
169,PL115096,P115HAU096,HAU096,Wankangmian9,,SRR4006734,AD1,Cultivar,34.2904,113.3824,China,Henan,,YellowRiver,,SRR4006734,,,,
170,PL115097,P115HAU097,HAU097,Zhongmiansuo10,,SRR4006735,AD1,Cultivar,34.2904,113.3824,China,Henan,,YellowRiver,,SRR4006735,,,,
171,PL115098,P115HAU098,HAU098,Zhongmiansuo13,,SRR4006737,AD1,Cultivar,34.2904,113.3824,China,Henan,,YellowRiver,,SRR4006737,,,,
172,PL115099,P115HAU099,HAU099,Zhongmiansuo19,,SRR4006738,AD1,Cultivar,34.2904,113.3824,China,Henan,,YellowRiver,,SRR4006738,,,,
173,PL115100,P115HAU100,HAU100,Zhongmiansuo20,,SRR4006740,AD1,Cultivar,34.2904,113.3824,China,Henan,,YellowRiver,,SRR4006740,,,,
174,PL115101,P115HAU101,HAU101,Ganmian10,,SRR4013321,AD1,Cultivar,27.0875,114.9042,China,Jiangxi,,YangtzeRiver,,SRR4013321,,,,
175,PL115102,P115HAU102,HAU102,Zhongmiansuo27,,SRR4013322,AD1,Cultivar,34.2904,113.3824,China,Henan,,YellowRiver,,SRR4013322,,,,
176,PL115103,P115HAU103,HAU103,Zhongmiansuo30,,SRR4013323,AD1,Cultivar,34.2904,113.3824,China,Henan,,YellowRiver,,SRR4013323,,,,
177,PL115104,P115HAU104,HAU104,Zhongmiansuo31,,SRR4013324,AD1,Cultivar,34.2904,113.3824,China,Henan,,YellowRiver,,SRR4013324,,,,
178,PL115105,P115HAU105,HAU105,Zhongmiansuo32,,SRR4013325,AD1,Cultivar,34.2904,113.3824,China,Henan,,YellowRiver,,SRR4013325,,,,
179,PL115106,P115HAU106,HAU106,Zhongmiansuo34,,SRR4013326,AD1,Cultivar,34.2904,113.3824,China,Henan,,YellowRiver,,SRR4013326,,,,
180,PL115107,P115HAU107,HAU107,Zhongmiansuo35,,SRR4013327,AD1,Cultivar,34.2904,113.3824,China,Henan,,YellowRiver,,SRR4013327,,,,
181,PL115108,P115HAU108,HAU108,Zhongmiansuo43,,SRR4013328,AD1,Cultivar,34.2904,113.3824,China,Henan,,YellowRiver,,SRR4013328,,,,
182,PL115109,P115HAU109,HAU109,Zhongmiansuo45,,SRR4013329,AD1,Cultivar,34.2904,113.3824,China,Henan,,YellowRiver,,SRR4013329,,,,
183,PL115110,P115HAU110,HAU110,Zhongmiansuo49,,SRR4013330,AD1,Cultivar,34.2904,113.3824,China,Henan,,YellowRiver,,SRR4013330,,,,
184,PL115111,P115HAU111,HAU111,Zhongmiansuo69,,SRR4013614,AD1,Cultivar,34.2904,113.3824,China,Henan,,YellowRiver,,SRR4013614,,,,
185,PL115112,P115HAU112,HAU112,86-4,,SRR4013615,AD1,Cultivar,39.9138,116.3636,China,Beijing,,YellowRiver,,SRR4013615,,,,
186,PL115113,P115HAU113,HAU113,108_,,SRR4013616,AD1,Cultivar,39.9138,116.3636,China,China,,,,SRR4013616,,,,
187,PL115114,P115HAU114,HAU114,52-128,,SRR4013617,AD1,Cultivar,30.2638,102.8055,China,Sichuan,,YangtzeRiver,,SRR4013617,,,,
188,PL115115,P115HAU115,HAU115,57-681,,SRR4013618,AD1,Cultivar,30.2638,102.8055,China,Sichuan,,YangtzeRiver,,SRR4013618,,,,
189,PL115116,P115HAU116,HAU116,611Bo,,SRR4013619,AD1,Cultivar,39.9138,116.3636,China,China,,,,SRR4013619,,,,
190,PL115117,P115HU117,HU117,NC20B,,SRR4013620,AD1,Cultivar,37.0902,-95.7129,USA,,,,,SRR4013620,,,,
191,PL115118,P115HAU118,HAU118,sGKmianxiang69,,SRR4013621,AD1,Cultivar,34.2904,113.3824,China,Henan,,YellowRiver,,SRR4013621,,,,
192,PL115119,P115HAU119,HAU119,Bawangbian,,SRR4013622,AD1,Cultivar,37.2426,111.8569,China,Shanxi,,YellowRiver,,SRR4013622,,,,
193,PL115120,P115HAU120,HAU120,Beinong1,,SRR4013623,AD1,Cultivar,37.8957,114.9042,China,Hebei,,YellowRiver,,SRR4013623,,,,
194,PL115121,P115HAU121,HAU121,Binchuan373,,SRR4013624,AD1,Cultivar,24.4753,101.3431,China,Yunnan,,South,,SRR4013624,,,,
195,PL115122,P115HAU122,HAU122,Binmian1,,SRR4013625,AD1,Cultivar,35.8940,117.9249,China,Shandong,,YellowRiver,,SRR4013625,,,,
196,PL115123,P115HAU123,HAU123,Bomian2,,SRR4013626,AD1,Cultivar,35.8940,117.9249,China,Shandong,,YellowRiver,,SRR4013626,,,,
197,PL115124,P115HAU124,HAU124,Changrong1,,SRR4013627,AD1,Cultivar,33.1402,119.7889,China,Jiangsu,,YangtzeRiver,,SRR4013627,,,,
198,PL115125,P115HAU125,HAU125,Changkangmian,,SRR4013628,AD1,Cultivar,33.1402,119.7889,China,Jiangsu,,YangtzeRiver,,SRR4013628,,,,
199,PL115126,P115HAU126,HAU126,Zhaoyang1,,SRR4013629,AD1,Cultivar,41.9437,122.5290,China,Liaoning,,North,,SRR4013629,,,,
200,PL115127,P115HAU127,HAU127,Chuanmian56,,SRR4013630,AD1,Cultivar,30.2638,102.8055,China,Sichuan,,YangtzeRiver,,SRR4013630,,,,
201,PL115128,P115HAU128,HAU128,Chuanmian239,,SRR4013631,AD1,Cultivar,30.2638,102.8055,China,Sichuan,,YangtzeRiver,,SRR4013631,,,,
202,PL115129,P115HAU129,HAU129,Dafeng30,,SRR4013632,AD1,Cultivar,33.1402,119.7889,China,Jiangsu,,YangtzeRiver,,SRR4013632,,,,
203,PL115130,P115HU130,HU130,Deltapine14,PI528970 ,SRR4013633,AD1,Cultivar,37.0902,-95.7129,USA,,,,,SRR4013633,,,,
204,PL115131,P115HU131,HU131,Deltapine16,PI529251,SRR4013850,AD1,Cultivar,37.0902,-95.7129,USA,,,,,SRR4013850,,,,
205,PL115132,P115HAU132,HAU132,Dexiamian1,,SRR4013875,AD1,Cultivar,35.8940,117.9249,China,Shandong,,YellowRiver,,SRR4013875,,,,
206,PL115133,P115HU133,HU133,Dezimian531,,SRR4013876,AD1,Cultivar,37.0902,-95.7129,USA,,,,,SRR4013876,,,,
207,PL115134,P115HAU134,HAU134,Dunmian1,,SRR4013885,AD1,Cultivar,35.7518,104.2861,China,Gansu,,XinJiang,,SRR4013885,,,,
208,PL115135,P115HAU135,HAU135,Dunmian2,,SRR4013886,AD1,Cultivar,35.7518,104.2861,China,Gansu,,XinJiang,,SRR4013886,,,,
209,PL115136,P115HAU136,HAU136,Fumian289,,SRR4013887,AD1,Cultivar,34.2904,113.3824,China,Henan,,YellowRiver,,SRR4013887,,,,
210,PL115137,P115HAU137,HAU137,Ganmian1,,SRR4013888,AD1,Cultivar,27.0875,114.9042,China,Jiangxi,,YangtzeRiver,,SRR4013888,,,,
211,PL115138,P115HAU138,HAU138,Ganmian2,,SRR4013889,AD1,Cultivar,27.0875,114.9042,China,Jiangxi,,YangtzeRiver,,SRR4013889,,,,
212,PL115139,P115HAU139,HAU139,Ganmian13,,SRR4013890,AD1,Cultivar,27.0875,114.9042,China,Jiangxi,,YangtzeRiver,,SRR4013890,,,,
213,PL115140,P115HAU140,HAU140,Guannong1,,SRR4013891,AD1,Cultivar,41.9437,122.5290,China,Liaoning,,North,,SRR4013891,,,,
214,PL115141,P115HU141,HU141,Guangyedaizimian,,SRR4013892,AD1,Cultivar,37.0902,-95.7129,USA,,,,,SRR4013892,,,,
215,PL115142,P115HAU142,HAU142,Guoxinmian3,,SRR4013893,AD1,Cultivar,37.8957,114.9042,China,Hebei,,YellowRiver,,SRR4013893,,,,
216,PL115143,P115HAU143,HAU143,Han7860,,SRR4013894,AD1,Cultivar,37.8957,114.9042,China,Hebei,,YellowRiver,,SRR4013894,,,,
217,PL115144,P115HAU144,HAU144,Handan885,,SRR4013895,AD1,Cultivar,37.8957,114.9042,China,Hebei,,YellowRiver,,SRR4013895,,,,
218,PL115145,P115HAU145,HAU145,Henan79,,SRR4013896,AD1,Cultivar,34.2904,113.3824,China,Henan,,YellowRiver,,SRR4013896,,,,
219,PL115146,P115HAU146,HAU146,Huadong6,,SRR4013897,AD1,Cultivar,33.1402,119.7889,China,Jiangsu,,YangtzeRiver,,SRR4013897,,,,
220,PL115147,P115HAU147,HAU147,Ji688,,SRR4013898,AD1,Cultivar,37.8957,114.9042,China,Hebei,,YellowRiver,,SRR4013898,,,,
221,PL115148,P115HAU148,HAU148,Jimian958,,SRR4013899,AD1,Cultivar,37.8957,114.9042,China,Hebei,,YellowRiver,,SRR4013899,,,,
222,PL115149,P115HAU149,HAU149,Jifeng554,,SRR4013900,AD1,Cultivar,37.8957,114.9042,China,Hebei,,YellowRiver,,SRR4013900,,,,
223,PL115150,P115HAU150,HAU150,Jimian1,,SRR4013901,AD1,Cultivar,37.8957,114.9042,China,Hebei,,YellowRiver,,SRR4013901,,,,
224,PL115151,P115HAU151,HAU151,Jimian6,,SRR4014009,AD1,Cultivar,37.8957,114.9042,China,Hebei,,YellowRiver,,SRR4014009,,,,
225,PL115152,P115HAU152,HAU152,Jimian7,,SRR4014010,AD1,Cultivar,37.8957,114.9042,China,Hebei,,YellowRiver,,SRR4014010,,,,
226,PL115153,P115HAU153,HAU153,Jimian15,,SRR4014011,AD1,Cultivar,37.8957,114.9042,China,Hebei,,YellowRiver,,SRR4014011,,,,
227,PL115154,P115HAU154,HAU154,Jimian19,,SRR4014012,AD1,Cultivar,37.8957,114.9042,China,Hebei,,YellowRiver,,SRR4014012,,,,
228,PL115155,P115HAU155,HAU155,Jimian20,,SRR4014013,AD1,Cultivar,37.8957,114.9042,China,Hebei,,YellowRiver,,SRR4014013,,,,
229,PL115156,P115HAU156,HAU156,Jimian21,,SRR4014014,AD1,Cultivar,37.8957,114.9042,China,Hebei,,YellowRiver,,SRR4014014,,,,
230,PL115157,P115HAU157,HAU157,Jimian28,,SRR4014015,AD1,Cultivar,37.8957,114.9042,China,Hebei,,YellowRiver,,SRR4014015,,,,
231,PL115158,P115HAU158,HAU158,Jimian169,,SRR4014016,AD1,Cultivar,37.8957,114.9042,China,Hebei,,YellowRiver,,SRR4014016,,,,
232,PL115159,P115HAU159,HAU159,Jinzhong169,,SRR4014017,AD1,Cultivar,37.2426,111.8569,China,Shanxi,,YellowRiver,,SRR4014017,,,,
233,PL115160,P115HAU160,HAU160,Jiangsumian1,,SRR4014018,AD1,Cultivar,33.1402,119.7889,China,Jiangsu,,YangtzeRiver,,SRR4014018,,,,
234,PL115161,P115HAU161,HAU161,Jiangsumian3,,SRR4014021,AD1,Cultivar,33.1402,119.7889,China,Jiangsu,,YangtzeRiver,,SRR4014021,,,,
235,PL115163,P115HAU163,HAU163,Jinmian2,,SRR4014023,AD1,Cultivar,41.9437,122.5290,China,Liaoning,,North,,SRR4014023,,,,
236,PL115165,P115HAU165,HAU165,Jinmian5,,SRR4014025,AD1,Cultivar,37.2426,111.8569,China,Shanxi,,YellowRiver,,SRR4014025,,,,
237,PL115167,P115HAU167,HAU167,Jinmian9,,SRR4014027,AD1,Cultivar,37.2426,111.8569,China,Shanxi,,YellowRiver,,SRR4014027,,,,
238,PL115168,P115HAU168,HAU168,Jinmian16,,SRR4014028,AD1,Cultivar,37.2426,111.8569,China,Shanxi,,YellowRiver,,SRR4014028,,,,
239,PL115169,P115HAU169,HAU169,Jinmian17,,SRR4014030,AD1,Cultivar,37.2426,111.8569,China,Shanxi,,YellowRiver,,SRR4014030,,,,
240,PL115170,P115HAU170,HAU170,Jinmian21,,SRR4014037,AD1,Cultivar,37.2426,111.8569,China,Shanxi,,YellowRiver,,SRR4014037,,,,
241,PL115171,P115HAU171,HAU171,Jinmian24,,SRR4017354,AD1,Cultivar,37.2426,111.8569,China,Shanxi,,YellowRiver,,SRR4017354,,,,
242,PL115172,P115HAU172,HAU172,Jinmian25,,SRR4017355,AD1,Cultivar,37.2426,111.8569,China,Shanxi,,YellowRiver,,SRR4017355,,,,
243,PL115173,P115HAU173,HAU173,Jinmian26,,SRR4017356,AD1,Cultivar,37.2426,111.8569,China,Shanxi,,YellowRiver,,SRR4017356,,,,
244,PL115174,P115HAU174,HAU174,Jinmian29,,SRR4017357,AD1,Cultivar,37.2426,111.8569,China,Shanxi,,YellowRiver,,SRR4017357,,,,
245,PL115175,P115HAU175,HAU175,Jinmian38,,SRR4018441,AD1,Cultivar,37.2426,111.8569,China,Shanxi,,YellowRiver,,SRR4018441,,,,
246,PL115176,P115HAU176,HAU176,Keyi181,,SRR4018442,AD1,Cultivar,37.8957,114.9042,China,Hebei,,YellowRiver,,SRR4018442,,,,
247,PL115177,P115HAU177,HAU177,KK1543,,SRR4018443,AD1,Cultivar,39.9138,116.3636,China,China,,,,SRR4018443,,,,
248,PL115178,P115HAU178,HAU178,Lixian72,,SRR4018444,AD1,Cultivar,27.6253,111.8569,China,Hunan,,YangtzeRiver,,SRR4018444,,,,
249,PL115179,P115HAU179,HAU179,Liaomian1,,SRR4018445,AD1,Cultivar,41.9437,122.5290,China,Liaoning,,North,,SRR4018445,,,,
250,PL115180,P115HAU180,HAU180,Liaomian3,,SRR4018452,AD1,Cultivar,41.9437,122.5290,China,Liaoning,,North,,SRR4018452,,,,
251,PL115181,P115HAU181,HAU181,Liaomian6,,SRR4018453,AD1,Cultivar,41.9437,122.5290,China,Liaoning,,North,,SRR4018453,,,,
252,PL115182,P115HAU182,HAU182,Liaomian8,,SRR4018454,AD1,Cultivar,41.9437,122.5290,China,Liaoning,,North,,SRR4018454,,,,
253,PL115183,P115HAU183,HAU183,Liaomian12,,SRR4018455,AD1,Cultivar,41.9437,122.5290,China,Liaoning,,North,,SRR4018455,,,,
254,PL115184,P115HAU184,HAU184,Liaomian18,,SRR4018456,AD1,Cultivar,41.9437,122.5290,China,Liaoning,,North,,SRR4018456,,,,
255,PL115185,P115HAU185,HAU185,Liaoyangduanjie,,SRR4018457,AD1,Cultivar,41.9437,122.5290,China,Liaoning,,North,,SRR4018457,,,,
256,PL115186,P115HAU186,HAU186,Lu742,,SRR4018459,AD1,Cultivar,35.8940,117.9249,China,Shandong,,YellowRiver,,SRR4018459,,,,
257,PL115187,P115HAU187,HAU187,LuK638,,SRR4018460,AD1,Cultivar,35.8940,117.9249,China,Shandong,,YellowRiver,,SRR4018460,,,,
258,PL115188,P115HAU188,HAU188,Lumian5,,SRR4018461,AD1,Cultivar,35.8940,117.9249,China,Shandong,,YellowRiver,,SRR4018461,,,,
259,PL115189,P115HAU189,HAU189,Lumian12,,SRR4018462,AD1,Cultivar,35.8940,117.9249,China,Shandong,,YellowRiver,,SRR4018462,,,,
260,PL115190,P115HAU190,HAU190,Lumian14,,SRR4018463,AD1,Cultivar,35.8940,117.9249,China,Shandong,,YellowRiver,,SRR4018463,,,,
261,PL115191,P115HAU191,HAU191,Lumian22,,SRR4018519,AD1,Cultivar,35.8940,117.9249,China,Shandong,,YellowRiver,,SRR4018519,,,,
262,PL115192,P115HAU192,HAU192,Lumian28,,SRR4018522,AD1,Cultivar,35.8940,117.9249,China,Shandong,,YellowRiver,,SRR4018522,,,,
263,PL115193,P115HAU193,HAU193,Lumian32,,SRR4018525,AD1,Cultivar,35.8940,117.9249,China,Shandong,,YellowRiver,,SRR4018525,,,,
264,PL115194,P115HAU194,HAU194,Lumianyan17,,SRR4018526,AD1,Cultivar,35.8940,117.9249,China,Shandong,,YellowRiver,,SRR4018526,,,,
265,PL115195,P115HAU195,HAU195,Lumianyan32,,SRR4018527,AD1,Cultivar,35.8940,117.9249,China,Shandong,,YellowRiver,,SRR4018527,,,,
266,PL115196,P115HAU196,HAU196,Luodiantiezi,,SRR4018528,AD1,Cultivar,26.8430,107.2903,China,Guizhou,,South,,SRR4018528,,,,
267,PL115197,P115HAU197,HAU197,Ningmian1,,SRR4018529,AD1,Cultivar,33.1402,119.7889,China,Jiangsu,,YangtzeRiver,,SRR4018529,,,,
268,PL115198,P115HAU198,HAU198,Ningmian7,,SRR4018530,AD1,Cultivar,33.1402,119.7889,China,Jiangsu,,YangtzeRiver,,SRR4018530,,,,
269,PL115199,P115HAU199,HAU199,Ningmian12,,SRR4018531,AD1,Cultivar,33.1402,119.7889,China,Jiangsu,,YangtzeRiver,,SRR4018531,,,,
270,PL115200,P115HAU200,HAU200,Nongda94-7,,SRR4018533,AD1,Cultivar,37.8957,114.9042,China,Hebei,,YellowRiver,,SRR4018533,,,,
271,PL115201,P115HAU201,HAU201,Nongdamian8,,SRR4018534,AD1,Cultivar,37.8957,114.9042,China,Hebei,,YellowRiver,,SRR4018534,,,,
272,PL115202,P115HAU202,HAU202,Nongkeng5,,SRR4018535,AD1,Cultivar,42.8246,89.0396,China,Xinjiang,,XinJiang,,SRR4018535,,,,
273,PL115203,P115HAU203,HAU203,Qinli514,,SRR4018536,AD1,Cultivar,37.8957,114.9042,China,Hebei,,YellowRiver,,SRR4018536,,,,
274,PL115204,P115HAU204,HAU204,Qinyuan4,,SRR4018537,AD1,Cultivar,37.2426,111.8569,China,Shanxi,,YellowRiver,,SRR4018537,,,,
275,PL115205,P115HAU205,HAU205,Shangnongfengkangmian6,,SRR4018538,AD1,Cultivar,35.8940,117.9249,China,Shandong,,YellowRiver,,SRR4018538,,,,
276,PL115206,P115HAU206,HAU206,Shan2234,,SRR4018539,AD1,Cultivar,37.2426,111.8569,China,Shanxi,,YellowRiver,,SRR4018539,,,,
277,PL115207,P115HAU207,HAU207,Shan3619,,SRR4018540,AD1,Cultivar,37.2426,111.8569,China,Shanxi,,YellowRiver,,SRR4018540,,,,
278,PL115208,P115HAU208,HAU208,Shanmian1,,SRR4018541,AD1,Cultivar,37.2426,111.8569,China,Shanxi,,YellowRiver,,SRR4018541,,,,
279,PL115209,P115HAU209,HAU209,Shanmian4,,SRR4018542,AD1,Cultivar,37.2426,111.8569,China,Shanxi,,YellowRiver,,SRR4018542,,,,
280,PL115210,P115HAU210,HAU210,Shanzao2786,,SRR4018543,AD1,Cultivar,37.2426,111.8569,China,Shanxi,,YellowRiver,,SRR4018543,,,,
281,PL115211,P115HAU211,HAU211,Shangqiu24,,SRR4018544,AD1,Cultivar,34.2904,113.3824,China,Henan,,YellowRiver,,SRR4018544,,,,
282,PL115212,P115HAU212,HAU212,C1470,,SRR4018546,AD1,Cultivar,39.9138,116.3636,China,China,,,,SRR4018546,,,,
283,PL115213,P115HU213,HU213,Stoneville2B,PI528654,SRR4018547,AD1,Cultivar,37.0902,-95.7129,USA,,,,,SRR4018547,,,,
284,PL115214,P115HAU214,HAU214,Simian4,,SRR4018548,AD1,Cultivar,33.1402,119.7889,China,Jiangsu,,YangtzeRiver,,SRR4018548,,,,
285,PL115215,P115HAU215,HAU215,Sumian11,,SRR4018549,AD1,Cultivar,33.1402,119.7889,China,Jiangsu,,YangtzeRiver,,SRR4018549,,,,
286,PL115216,P115HAU216,HAU216,Sumian20,,SRR4018550,AD1,Cultivar,33.1402,119.7889,China,Jiangsu,,YangtzeRiver,,SRR4018550,,,,
287,PL115218,P115HAU218,HAU218,Sumian22,,SRR4018552,AD1,Cultivar,33.1402,119.7889,China,Jiangsu,,YangtzeRiver,,SRR4018552,,,,
288,PL115219,P115HAU219,HAU219,Wanmian17,,SRR4018553,AD1,Cultivar,30.6007,117.9249,China,Anhui,,YangtzeRiver,,SRR4018553,,,,
289,PL115220,P115HAU220,HAU220,Xiangmian10,,SRR4018554,AD1,Cultivar,27.6253,111.8569,China,Hunan,,YangtzeRiver,,SRR4018554,,,,
290,PL115221,P115HAU221,HAU221,Xiangmian11,,SRR4018555,AD1,Cultivar,27.6253,111.8569,China,Hunan,,YangtzeRiver,,SRR4018555,,,,
291,PL115222,P115HAU222,HAU222,Xiezuo2,,SRR4018556,AD1,Cultivar,29.1416,119.7889,China,Zhejiang,,YangtzeRiver,,SRR4018556,,,,
292,PL115223,P115HAU223,HAU223,Xinlu201,,SRR4018557,AD1,Cultivar,40.8246,80.4396,China,South of Xinjiang,,XinJiang,,SRR4018557,,,,
293,PL115224,P115HAU224,HAU224,Xinluzao4,,SRR4018558,AD1,Cultivar,45.5246,87.5396,China,North of Xinjiang,,XinJiang,,SRR4018558,,,,
294,PL115225,P115HAU225,HAU225,Xinluzao5,,SRR4018559,AD1,Cultivar,45.5246,87.5396,China,North of Xinjiang,,XinJiang,,SRR4018559,,,,
295,PL115226,P115HAU226,HAU226,Xinluzao19,,SRR4018560,AD1,Cultivar,45.5246,87.5396,China,North of Xinjiang,,XinJiang,,SRR4018560,,,,
296,PL115227,P115HAU227,HAU227,Xinluzao30,,SRR4018561,AD1,Cultivar,45.5246,87.5396,China,North of Xinjiang,,XinJiang,,SRR4018561,,,,
297,PL115228,P115HAU228,HAU228,Xinluzao31,,SRR4018562,AD1,Cultivar,45.5246,87.5396,China,North of Xinjiang,,XinJiang,,SRR4018562,,,,
298,PL115229,P115HAU229,HAU229,Xinluzao36,,SRR4018563,AD1,Cultivar,45.5246,87.5396,China,North of Xinjiang,,XinJiang,,SRR4018563,,,,
299,PL115231,P115HAU231,HAU231,Xinluzhong14,,SRR4018565,AD1,Cultivar,40.8246,80.4396,China,South of Xinjiang,,XinJiang,,SRR4018565,,,,
300,PL115232,P115HAU232,HAU232,Xinluzhong18,,SRR4018566,AD1,Cultivar,40.8246,80.4396,China,South of Xinjiang,,XinJiang,,SRR4018566,,,,
301,PL115234,P115HAU234,HAU234,Xumian18,,SRR4018580,AD1,Cultivar,33.1402,119.7889,China,Jiangsu,,YangtzeRiver,,SRR4018580,,,,
302,PL115235,P115HAU235,HAU235,Xumian219,,SRR4018581,AD1,Cultivar,33.1402,119.7889,China,Jiangsu,,YangtzeRiver,,SRR4018581,,,,
303,PL115236,P115HAU236,HAU236,Xuzhou514,,SRR4018582,AD1,Cultivar,33.1402,119.7889,China,Jiangsu,,YangtzeRiver,,SRR4018582,,,,
304,PL115237,P115HAU237,HAU237,Yanmian1,,SRR4018583,AD1,Cultivar,30.2638,102.8055,China,Sichuan,,YangtzeRiver,,SRR4018583,,,,
305,PL115238,P115HAU238,HAU238,Yishan8,,SRR4018584,AD1,Cultivar,34.2904,113.3824,China,Henan,,YellowRiver,,SRR4018584,,,,
306,PL115239,P115HAU239,HAU239,Yu79-10,,SRR4018585,AD1,Cultivar,34.2904,113.3824,China,Henan,,YellowRiver,,SRR4018585,,,,
307,PL115240,P115HAU240,HAU240,Yukang1,,SRR4018586,AD1,Cultivar,34.2904,113.3824,China,Henan,,YellowRiver,,SRR4018586,,,,
308,PL115241,P115HAU241,HAU241,Yumian1,,SRR4018587,AD1,Cultivar,34.2904,113.3824,China,Henan,,YellowRiver,,SRR4018587,,,,
309,PL115242,P115HAU242,HAU242,Yumian5,,SRR4018588,AD1,Cultivar,34.2904,113.3824,China,Henan,,YellowRiver,,SRR4018588,,,,
310,PL115243,P115HAU243,HAU243,Yumian8,,SRR4018589,AD1,Cultivar,34.2904,113.3824,China,Henan,,YellowRiver,,SRR4018589,,,,
311,PL115244,P115HAU244,HAU244,Yumian14,,SRR4018590,AD1,Cultivar,34.2904,113.3824,China,Henan,,YellowRiver,,SRR4018590,,,,
312,PL115245,P115HAU245,HAU245,Yumian20,,SRR4018591,AD1,Cultivar,34.2904,113.3824,China,Henan,,YellowRiver,,SRR4018591,,,,
313,PL115246,P115HAU246,HAU246,Yuwu19,,SRR4018592,AD1,Cultivar,34.2904,113.3824,China,Henan,,YellowRiver,,SRR4018592,,,,
314,PL115247,P115HAU247,HAU247,Yun1729,,SRR4018593,AD1,Cultivar,37.2426,111.8569,China,Shanxi,,YellowRiver,,SRR4018593,,,,
315,PL115248,P115HAU248,HAU248,Yun87-509,,SRR4018594,AD1,Cultivar,37.2426,111.8569,China,Shanxi,,YellowRiver,,SRR4018594,,,,
316,PL115249,P115HAU249,HAU249,Zhemian11,,SRR4018595,AD1,Cultivar,29.1416,119.7889,China,Zhejiang,,YangtzeRiver,,SRR4018595,,,,
317,PL115250,P115HAU250,HAU250,Zhengnongmian4,,SRR4018596,AD1,Cultivar,34.2904,113.3824,China,Henan,,YellowRiver,,SRR4018596,,,,
318,PL115251,P115HAU251,HAU251,Xinluzao7,,SRR4018945,AD1,Cultivar,45.5246,87.5396,China,North of Xinjiang,,XinJiang,,SRR4018945,,,,
319,PL115252,P115HAU252,HAU252,Xinluzao15,,SRR4018946,AD1,Cultivar,45.5246,87.5396,China,North of Xinjiang,,XinJiang,,SRR4018946,,,,
320,PL115253,P115HAU253,HAU253,Xinluzao22,,SRR4018953,AD1,Cultivar,45.5246,87.5396,China,North of Xinjiang,,XinJiang,,SRR4018953,,,,
321,PL115254,P115HAU254,HAU254,Xinluzao25,,SRR4018954,AD1,Cultivar,45.5246,87.5396,China,North of Xinjiang,,XinJiang,,SRR4018954,,,,
322,PL115255,P115HAU255,HAU255,Xinluzao26,,SRR4018955,AD1,Cultivar,45.5246,87.5396,China,North of Xinjiang,,XinJiang,,SRR4018955,,,,
323,PL115256,P115HAU256,HAU256,Xinluzao41,,SRR4018956,AD1,Cultivar,45.5246,87.5396,China,North of Xinjiang,,XinJiang,,SRR4018956,,,,
324,PL115257,P115HAU257,HAU257,Xinluzao46,,SRR4018957,AD1,Cultivar,45.5246,87.5396,China,North of Xinjiang,,XinJiang,,SRR4018957,,,,
325,PL115258,P115HAU258,HAU258,Xinluzao48,,SRR4018958,AD1,Cultivar,45.5246,87.5396,China,North of Xinjiang,,XinJiang,,SRR4018958,,,,
326,PL115259,P115HAU259,HAU259,Zhongzhimian2,,SRR4018959,AD1,Cultivar,34.2904,113.3824,China,Henan,,YellowRiver,,SRR4018959,,,,
327,PL115260,P115HAU260,HAU260,Emian22,,SRR4018960,AD1,Cultivar,30.7378,112.2384,China,Hubei,,YangtzeRiver,,SRR4018960,,,,
328,PL115261,P115HAU261,HAU261,Xinluzhong13,,SRR4018961,AD1,Cultivar,40.8246,80.4396,China,South of Xinjiang,,XinJiang,,SRR4018961,,,,
329,PL115262,P115HAU262,HAU262,Xinluzhong8,,SRR4018963,AD1,Cultivar,40.8246,80.4396,China,South of Xinjiang,,XinJiang,,SRR4018963,,,,
330,PL115263,P115HAU263,HAU263,Xinluzhong12,,SRR4018964,AD1,Cultivar,40.8246,80.4396,China,South of Xinjiang,,XinJiang,,SRR4018964,,,,
331,PL115264,P115HAU264,HAU264,Xinluzhong20,,SRR4018965,AD1,Cultivar,40.8246,80.4396,China,South of Xinjiang,,XinJiang,,SRR4018965,,,,
332,PL115265,P115HAU265,HAU265,Xinluzhong40,,SRR4018966,AD1,Cultivar,40.8246,80.4396,China,South of Xinjiang,,XinJiang,,SRR4018966,,,,
333,PL115266,P115HAU266,HAU266,Xinluzhong41,,SRR4018967,AD1,Cultivar,40.8246,80.4396,China,South of Xinjiang,,XinJiang,,SRR4018967,,,,
334,PL115267,P115HAU267,HAU267,Jimian14,,SRR4018968,AD1,Cultivar,39.9138,116.3636,China,China,,YellowRiver,,SRR4018968,,,,
335,PL115268,P115HU268,HU268,TM-1,,SRR4018969,AD1,Cultivar,37.0902,-95.7129,USA,,,,,SRR4018969,,,,
336,PL115269,P115HAU269,HAU269,Xuzhou142,,SRR4018970,AD1,Cultivar,33.1402,119.7889,China,Jiangsu,,YangtzeRiver,,SRR4018970,,,,
337,PL115270,P115HAU270,HAU270,Xuzhou142f1,,SRR4018971,AD1,Cultivar,33.1402,119.7889,China,Jiangsu,,YangtzeRiver,,SRR4018971,,,,
338,PL115271,P115HU271,HU271,T586,,SRR4018972,AD1,Cultivar,37.0902,-95.7129,USA,,,,,SRR4018972,,,,
339,PL115272,P115HAU272,HAU272,Li1,,SRR4018973,AD1,Cultivar,39.9138,116.3636,China,China,,,,SRR4018973,,,,
340,PL115273,P115HAU273,HAU273,gznn1-1,,SRR4018974,AD1,Cultivar,39.9138,116.3636,China,China,,,,SRR4018974,,,,
341,PL115274,P115HAU274,HAU274,GZNn2-1,,SRR4018975,AD1,Cultivar,34.2904,113.3824,China,Henan,,YellowRiver,,SRR4018975,,,,
342,PL115275,P115HAU275,HAU275,Xinxiangxiaoji,,SRR4018976,AD1,Cultivar,34.2904,113.3824,China,Henan,,YellowRiver,,SRR4018976,,,,
343,PL115276,P115HAU276,HAU276,N,,SRR4018977,AD1,Cultivar,39.9138,116.3636,China,China,,,,SRR4018977,,,,
344,PL115277,P115HAU277,HAU277,XuzhouGD-1,,SRR4018978,AD1,Cultivar,33.1402,119.7889,China,Jiangsu,,YangtzeRiver,,SRR4018978,,,,
345,PL115278,P115HAU278,HAU278,XuzhouGD-2,,SRR4018979,AD1,Cultivar,33.1402,119.7889,China,Jiangsu,,YangtzeRiver,,SRR4018979,,,,
346,PL115279,P115HAU279,HAU279,XuzhouGD-3,,SRR4018980,AD1,Cultivar,33.1402,119.7889,China,Jiangsu,,YangtzeRiver,,SRR4018980,,,,
347,PL115280,P115HAU280,HAU280,XuzhouGD-4,,SRR4018981,AD1,Cultivar,33.1402,119.7889,China,Jiangsu,,YangtzeRiver,,SRR4018981,,,,
348,PL115281,P115HAU281,HAU281,Ycyfl,,SRR4018982,AD1,Cultivar,42.8246,89.0396,China,Xinjiang,,XinJiang,,SRR4018982,,,,
349,PL116004,P116Cok139,Cok139,Coker 139,PI601389,SRS705557,AD1,Cultivar,37.0902,-95.7129,United States,,,,,Coker139,Cultivar,SAMN03002201,,SRR1580586
350,PL116006,P116D531C,D531C,Delfos 531C,PI528656 ,SRS705559,AD1,Cultivar,37.0902,-95.7129,United States,,,,,SRR1580589,Cultivar,SAMN03002203,,SRR1580589
351,PL116007,P116DixieK,DixieK,Dixie King,PI529021 ,SRS705560,AD1,Cultivar,37.0902,-95.7129,United States,,,,,SRR1580590,Cultivar,SAMN03002204,,SRR1580590
352,PL116035,P116SuM12,SuM12,Sumian 12#,,SRS705588,AD1,Cultivar,39.9138,116.3636,China,,,,,SRS705588,Cultivar,SAMN03002233,,SRR1580627
353,PL216121,P216JunH1,JunH1,Junhai 1#,,SRS705674,AD2,Cultivar,40.0000,82.0000,China,,,,,SRS705674,Cultivar,SAMN03002319,,SRR1580763
354,PL117178,P117CIR7,CIR7,CIR 7#,,SRS2168414,AD1,Cultivar,39.9138,116.3636,China,,,China,,SRS2168414,ZM-01045,SAMN06348692,SRX2786412,SRR5512442
355,PL117179,P117SiM3,SiM3,Simian 3#,,SRS2168415,AD1,Cultivar,39.9138,116.3636,China,,,China,,SRS2168415,ZM113963,SAMN06348693,SRX2786413,SRR5512443
356,PL117181,P117SiM2,SiM2,Simian 2#,,SRS2168417,AD1,Cultivar,39.9138,116.3636,China,,,China,,SRS2168417,ZM003304,SAMN06348694,SRX2786415,SRR5512445
357,PL117182,P117XLZ42,XLZ42,Xinluzao 42#,,SRS2168418,AD1,Cultivar,39.9138,116.3636,China,,,China,,SRS2168418,ZM115186,SAMN06348695,SRX2786416,SRR5512446
358,PL117183,P117C86,C86,86-1.2,,SRS2168419,AD1,Cultivar,39.9138,116.3636,China,,,Yellow river,,SRS2168419,ZM001746,SAMN06348696,SRX2786417,SRR5512447
359,PL117184,P117DP15,DP15,Deltapine 15,,SRS2168420,AD1,Cultivar,37.0902,-95.7129,United States,,,,,SRS2168420,ZM006113,SAMN06348697,SRX2786418,SRR5512448
360,PL117185,P117ST2B,ST2B,Stoneville 2B,,SRS2168421,AD1,Cultivar,37.0902,-95.7129,United States,,,,,SRS2168421,ZM006249,SAMN06348698,SRX2786419,SRR5512449
361,PL117186,P117SY321,SY321,Shiyuan 321,,SRS2168422,AD1,Cultivar,39.9138,116.3636,China,,,China,,SRS2168422,ZM113951,SAMN06348699,SRX2786420,SRR5512450
362,PL117187,P117JunM1,JunM1,Junmian 1#,,SRS2168423,AD1,Cultivar,39.9138,116.3636,China,,,China,,SRS2168423,ZM005018,SAMN06348700,SRX2786421,SRR5512451
363,PL117188,P117J8891,J8891,J8891,,SRS2168425,AD1,Cultivar,,,,,,,,SRS2168425,,SAMN06348701,SRX2786422,SRR5512452
364,PL117189,P117CIR12,CIR12,CIR 12#,,SRS2168424,AD1,Cultivar,39.9138,116.3636,China,,,China,,SRS2168424,ZM030345,SAMN06348702,SRX2786423,SRR5512453